HST                     
1 20580U 90037B   25039.52274229  .00008849  00000+0  35790-3 0  9991
2 20580  28.4659 195.6778 0002946  97.1908 262.9021 15.22920728713033
POLAR                   
1 23802U 96013A   25036.25829700  .00000302  00000+0  00000+0 0  9996
2 23802  79.3196 232.3782 6019624 225.8400  65.4046  1.29846596138409
SWAS                    
1 25560U 98071A   25039.39554780  .00005441  00000+0  39538-3 0  9997
2 25560  69.8972  56.2425 0009966 288.8416  71.1664 15.04393396422862
CXO                     
1 25867U 99040B   25037.21592970  .00000716  00000+0  00000+0 0  9994
2 25867  46.5701 136.5229 8614898 306.8174   0.4690  0.37805710 15459
XMM-NEWTON              
1 25989U 99066A   25039.74042622  .00000118  00000+0  00000+0 0  9997
2 25989  66.8188 289.5649 4940730  73.4128 359.9150  0.50133866 20531
TERRA                   
1 25994U 99068A   25039.58843058  .00000958  00000+0  20702-3 0  9996
2 25994  98.0171 101.8321 0002219  17.6806  88.3235 14.60453690337544
CLUSTER II-FM7 (SAMBA)  
1 26410U 00041A   25037.59891256  .00001621  00000+0  00000+0 0  9998
2 26410 142.3556   5.6440 8076430 220.8686 359.4172  0.44819644 18099
CLUSTER II-FM5 (RUMBA)  
1 26463U 00045A   25027.96814671  .00024969  00000+0  00000+0 0  9996
2 26463 153.7180  49.7247 8949202 266.8171 359.8501  0.42902652 30358
CLUSTER II-FM8 (TANGO)  
1 26464U 00045B   25040.34854967  .00001278  00000+0  00000+0 0  9994
2 26464 142.6311   6.0516 8087635 221.1574 359.2693  0.44416071 18114
ODIN                    
1 26702U 01007A   25039.61900982  .00022730  00000+0  69626-3 0  9994
2 26702  97.4611  61.3946 0007515 146.7852 213.3863 15.33786247313006
TIMED                   
1 26998U 01055B   25039.62463305  .00003401  00000+0  32843-3 0  9993
2 26998  74.0705 147.3993 0000326 260.2158  99.8988 14.93267936257094
INTEGRAL                
1 27540U 02048A   25039.63853324 -.00000089  00000+0  00000+0 0  9991
2 27540  90.8283   9.9393 8607106 275.1072 352.7146  0.37577231 24778
CORIOLIS                
1 27640U 03001A   25039.62471306  .00000326  00000+0  17449-3 0  9999
2 27640  98.7151  49.1008 0013856 190.1242 169.9657 14.19710397144189
SORCE                   
1 27651U 03004A   25039.39396507  .00006253  00000+0  51780-3 0  9998
2 27651  39.9899 189.7956 0018527 107.1563 253.1260 14.98940565197659
MOST                    
1 27843U 03031D   25039.56308689  .00000234  00000+0  12765-3 0  9997
2 27843  98.7082  49.1702 0008977 233.8963 126.1383 14.21147190120599
SCISAT 1                
1 27858U 03036A   25039.49033550  .00001559  00000+0  20912-3 0  9996
2 27858  73.9291  71.5068 0008927 253.6294 106.3900 14.80317764158360
SWIFT                   
1 28485U 04047A   25039.33474051  .00023696  00000+0  74147-3 0  9999
2 28485  20.5554 276.3091 0006190 110.5576 249.5528 15.31112966110269
CALIPSO                 
1 29108U 06016B   25039.54095155  .00002171  00000+0  39137-3 0  9992
2 29108  98.4414  33.8960 0001703  76.7612 283.3781 14.67592534   605
HINODE (SOLAR-B)        
1 29479U 06041A   25039.61511695  .00001520  00000+0  27591-3 0  9999
2 29479  98.0805  57.6932 0018847  55.6776 304.6209 14.67525253982440
SHIJIAN-6 02A (SJ-6 02A)
1 29505U 06046A   25039.60024311  .00009359  00000+0  59547-3 0  9991
2 29505  97.6994  72.7857 0004813  54.3489 305.8187 15.09008080997617
SHIJIAN-6 02B (SJ-6 02B)
1 29506U 06046B   25039.61053131  .00002898  00000+0  24356-3 0  9996
2 29506  97.7186  68.2967 0002083 175.8847 184.2393 14.99075703996721
FGRST (GLAST)           
1 33053U 08029A   25039.30592407  .00006082  00000+0  25986-3 0  9990
2 33053  25.5840  23.8969 0009304 274.5154  85.4320 15.19960208920500
SDO                     
1 36395U 10005A   25039.16380058 -.00000102  00000+0  00000+0 0  9994
2 36395  33.6127  93.9134 0001452 180.4945 180.9689  1.00276192 55113
CRYOSAT 2               
1 36508U 10013A   25039.61401031  .00000491  00000+0  12105-3 0  9997
2 36508  92.0195 158.1580 0002291 127.9125 232.2290 14.51909977786462
X-SAT                   
1 37389U 11015C   25039.57249420  .00000381  00000+0  18035-3 0  9991
2 37389  98.3050  36.6886 0014011 358.0153   2.0970 14.24952742717379
GCOM-W1 (SHIZUKU)       
1 38337U 12025A   25039.59609617  .00001454  00000+0  33228-3 0  9990
2 38337  98.2284 342.3394 0001248  92.0629  82.7007 14.57179686677154
NUSTAR                  
1 38358U 12031A   25039.58334491  .00015886  00000+0  11285-2 0  9996
2 38358   6.0260 117.4879 0008635 354.3484 348.5495 15.01564931  1300
NEOSSAT                 
1 39089U 13009D   25039.50155989  .00000495  00000+0  18702-3 0  9991
2 39089  98.4035 226.7310 0009984 279.1476  80.8580 14.35497715625904
BRITE-AUSTRIA           
1 39091U 13009F   25039.39300367  .00000548  00000+0  20254-3 0  9997
2 39091  98.3844 226.5465 0009166 275.4486  84.5654 14.36181367626161
IRIS                    
1 39197U 13033A   25039.53478423  .00003322  00000+0  40385-3 0  9996
2 39197  97.9556 235.1725 0026058 129.9309 230.4201 14.83932007627117
HISAKI (SPRINT-A)       
1 39253U 13049A   25039.59567637  .00000142  00000+0  10479-3 0  9996
2 39253  29.7185 209.3176 0137029 335.3374  24.0694 13.55467810564408
CASSIOPE                
1 39265U 13055A   25039.53193953  .00029270  00000+0  51358-3 0  9990
2 39265  80.9468 289.0799 0424219 243.0335 112.6967 14.88953214593327
STSAT-3                 
1 39422U 13066G   25039.58177514  .00005656  00000+0  47814-3 0  9991
2 39422  97.5481  16.3573 0018589 287.2699  72.6490 14.98320131610170
SWARM B                 
1 39451U 13067A   25039.59494825  .00006804  00000+0  28080-3 0  9992
2 39451  87.7502 131.7486 0002694  97.8904 262.2649 15.23872539607954
SWARM A                 
1 39452U 13067B   25039.56822724  .00011705  00000+0  30218-3 0  9995
2 39452  87.3366 237.5464 0002307  86.0302 274.1216 15.39011884630035
SWARM C                 
1 39453U 13067C   25039.56815093  .00011680  00000+0  30151-3 0  9995
2 39453  87.3366 236.1360 0002303  86.3206 273.8312 15.39014656629994
BRITE-CA1 (TORONTO)     
1 40020U 14033L   25039.31952671  .00001952  00000+0  30966-3 0  9993
2 40020  97.9041 174.8715 0081926  58.0572 302.8569 14.71048827569560
OCO 2                   
1 40059U 14035A   25039.55908915  .00001245  00000+0  28645-3 0  9991
2 40059  98.2285 343.0462 0001581  94.1029 266.0350 14.57105356564167
BRITE-PL2 (HEWELIUSZ)   
1 40119U 14049B   25039.24222700  .00004127  00000+0  41702-3 0  9991
2 40119  97.8839 144.3725 0013951 309.2669  50.7311 14.91521089567736
RESURS-P 2              
1 40360U 14087A   25038.99346969  .01229921  22824-5  42198-3 0  9992
2 40360  97.1071 138.8480 0003874 277.6808 202.3665 16.25498675568222
MMS 1                   
1 40482U 15011A   25038.33335648 -.00002602  00000+0  00000+0 0  9998
2 40482  60.4490 358.8628 8856341 156.4852  98.1182  0.28484303  1359
MMS 2                   
1 40483U 15011B   25038.33335648 -.00002605  00000+0  00000+0 0  9992
2 40483  60.4511 358.8601 8861828 156.4804  97.4389  0.28495367  1351
MMS 3                   
1 40484U 15011C   25038.33335648 -.00002604  00000+0  00000+0 0  9992
2 40484  60.4528 358.8588 8860866 156.4809  97.5848  0.28493560  1354
MMS 4                   
1 40485U 15011D   25038.41668981 -.00002617  00000+0  00000+0 0  9995
2 40485  60.4380 358.8669 8860446 156.4747  96.3435  0.28494496  1376
ASTROSAT                
1 40930U 15052A   25034.07890803  .00003478  00000+0  35627-3 0  9995
2 40930   5.9963 143.8216 0007490 116.1192 243.9706 14.80816026505676
DAMPE                   
1 41173U 15078A   25039.54614086  .00002815  00000+0  10313-3 0  9996
2 41173  97.4443  38.5746 0013411  33.6362 326.5726 15.28779368509073
PISAT                   
1 41784U 16059B   25039.61735152  .00002454  00000+0  43962-3 0  9995
2 41784  97.8226  56.8879 0029394 343.9870  16.0403 14.67390565447313
HXMT (HUIYAN)           
1 42758U 17034A   25039.48490551  .00011705  00000+0  51896-3 0  9991
2 42758  43.0149  40.4579 0011519 191.1605 168.8991 15.21535602422749
FLYING LAPTOP           
1 42831U 17042G   25039.57404343  .00004510  00000+0  38878-3 0  9997
2 42831  97.3939 213.3746 0012491   7.7771 352.3643 14.97719656412482
ZHANGHENG 1 (CSES)      
1 43194U 18015C   25039.60697360  .00018760  00000+0  86589-3 0  9992
2 43194  97.6307 192.0592 0009805 143.3908 216.7999 15.20230899389623
SALSAT                  
1 46495U 20068K   25039.40207052  .00010798  00000+0  50798-3 0  9999
2 46495  97.8466  12.1879 0010975 213.3740 146.6803 15.19704662240106
IXPE                    
1 49954U 21121A   25039.58334491  .00009098  00000+0  58926-3 0  9992
2 49954   0.2316  71.6007 0008891 204.5553 281.6510 15.03312741  5618
